BEIDOU-2 IGSO-5         
1 37948U 11073A   26169.66754444 -.00000192  00000+0  00000+0 0  9998
2 37948  47.6748 271.5267 0113971 221.7702 105.6518  1.00272695 53143
LUCH-5A                 
1 37951U 11074B   26172.50531091 -.00000055  00000+0  00000+0 0  9999
2 37951   8.7658  73.7450 0002478  27.2246 157.5700  1.00271231 53090
BEIDOU-2 G5             
1 38091U 12008A   26172.03983375  .00000053  00000+0  00000+0 0  9994
2 38091   3.5845  69.6825 0009015 273.5349 359.0277  1.00273091 52409
BEIDOU-2 M3             
1 38250U 12018A   26170.87348603 -.00000087  00000+0  00000+0 0  9999
2 38250  55.7552 304.7847 0020163 273.6567  86.1052  1.86229605 95993
BEIDOU-2 M4             
1 38251U 12018B   26172.41666900 -.00000098  00000+0  00000+0 0  9997
2 38251  55.6541 303.9461 0011367 274.9349  84.9285  1.86229230 96025
SES-5                   
1 38652U 12036A   26171.10782341  .00000029  00000+0  00000+0 0  9998
2 38652   0.0456 317.0080 0001850 132.7689 222.3295  1.00272034 44484
BEIDOU-2 M6             
1 38775U 12050B   26171.05246878 -.00000069  00000+0  00000+0 0  9999
2 38775  56.5467  62.7995 0013616 357.8468   2.1878  1.86230944 93365
GSAT-10                 
1 38779U 12051B   26171.40849205 -.00000169  00000+0  00000+0 0  9997
2 38779   0.0717 261.2491 0007842 187.3061  50.1329  1.00272193 50137
NAVSTAR 67 (USA 239)    
1 38833U 12053A   26171.30759611  .00000059  00000+0  00000+0 0  9997
2 38833  53.5866 143.4715 0180483  65.8000 296.0463  2.00567513 99500
GSAT0103 (GALILEO-FM3)  
1 38857U 12055A   26168.47561804 -.00000011  00000+0  00000+0 0  9993
2 38857  55.8068 101.5377 0004771 306.3432  53.5821  1.70473345 85011
BEIDOU-2 G6             
1 38953U 12059A   26170.70976387 -.00000183  00000+0  00000+0 0  9999
2 38953   4.4288  73.4979 0009632 324.3686 209.6174  1.00271500 49937
LUCH-5B                 
1 38977U 12061A   26169.89176601 -.00000148  00000+0  00000+0 0  9998
2 38977  10.4892  49.8655 0002465 150.1855  11.8366  1.00272094 49620
COSMOS 2485 [GLONASS-M] 
1 39155U 13019A   26172.13334175 -.00000048  00000+0  00000+0 0  9993
2 39155  65.4217  73.4720 0023003 233.7016 126.1208  2.13103118102365
NAVSTAR 68 (USA 242)    
1 39166U 13023A   26170.67606648 -.00000052  00000+0  00000+0 0  9999
2 39166  54.5020 268.8722 0141504  51.0528 310.2374  2.00563426 95938
IRNSS-1A                
1 39199U 13034A   26169.89544831  .00000051  00000+0  00000+0 0  9992
2 39199  35.7241  63.8469 0017589 183.2529  37.3106  1.00275723 47380
NAVSTAR 69 (USA 248)    
1 39533U 14008A   26171.17631964  .00000063  00000+0  00000+0 0  9997
2 39533  53.6552 149.1977 0084223 231.3206 127.9004  2.00559961 89743
ASTRA 5B                
1 39617U 14011B   26171.32539470  .00000132  00000+0  00000+0 0  9997
2 39617   0.0635 312.5910 0002057 113.5023 343.0777  1.00268988 44698
COSMOS 2492 [GLONASS-M] 
1 39620U 14012A   26169.27664962 -.00000055  00000+0  00000+0 0  9993
2 39620  65.2971 313.8989 0010348 324.5914  35.3281  2.13103143 95269
IRNSS-1B                
1 39635U 14017A   26170.76140735  .00000109  00000+0  00000+0 0  9996
2 39635  28.9179 240.3593 0023150 189.6008 167.3236  1.00277178 44811
LUCH-5V                 
1 39727U 14023A   26172.17197378 -.00000273  00000+0  00000+0 0  9990
2 39727   5.1436  69.7087 0001946  48.4046 307.9045  1.00273075 44395
NAVSTAR 70 (USA 251)    
1 39741U 14026A   26170.95326937 -.00000090  00000+0  00000+0 0  9995
2 39741  56.4969 331.4097 0038155 326.5311  33.2215  2.00560761 88598
COSMOS 2500 [GLONASS-M] 
1 40001U 14032A   26172.26192068 -.00000067  00000+0  00000+0 0  9999
2 40001  65.2298 313.5443 0007492 184.9913 174.9944  2.13105734 93544
NAVSTAR 71 (USA 256)    
1 40105U 14045A   26171.04506235 -.00000025  00000+0  00000+0 0  9992
2 40105  55.3550  88.3511 0033436 118.2269 242.1176  2.00558575 86137
GSAT0201 (GALILEO 5)    
1 40128U 14050A   26170.57286915 -.00000074  00000+0  00000+0 0  9994
2 40128  48.8729 273.3385 1674922 179.4838 180.7636  1.85520003 78366
GSAT0202 (GALILEO 6)    
1 40129U 14050B   26171.36737896 -.00000081  00000+0  00000+0 0  9990
2 40129  48.8886 272.3914 1676264 180.2437 179.7117  1.85520612 80545
IRNSS-1C                
1 40269U 14061A   26170.79126231 -.00000168  00000+0  00000+0 0  9994
2 40269   6.5240  88.8821 0022682   2.7462 184.1889  1.00268918 42714
NAVSTAR 72 (USA 258)    
1 40294U 14068A   26170.91475241 -.00000091  00000+0  00000+0 0  9996
2 40294  56.9895  30.8495 0067113  70.6969 290.0787  2.00576333 85260
COSMOS 2501 [GLONASS-K] 
1 40315U 14075A   26172.05477182  .00000072  00000+0  00000+0 0  9999
2 40315  63.6166 190.2381 0022628 212.5574 147.3441  2.13101228 89936
NAVSTAR 73 (USA 260)    
1 40534U 15013A   26171.05406355  .00000035  00000+0  00000+0 0  9997
2 40534  53.1677 204.0589 0109601  40.1558 320.7059  2.00551222 81885
GSAT0203 (GALILEO 7)    
1 40544U 15017A   26168.79938999 -.00000091  00000+0  00000+0 0  9996
2 40544  56.7854 341.5787 0002098 276.4201  83.5494  1.70476090 69215
GSAT0204 (GALILEO 8)    
1 40545U 15017B   26170.81493794 -.00000095  00000+0  00000+0 0  9996
2 40545  56.7939 341.5423 0001970 245.5009 114.4726  1.70475706 32291
