OBJECT_NAME,OBJECT_ID,EPOCH,MEAN_MOTION,ECCENTRICITY,INCLINATION,RA_OF_ASC_NODE,ARG_OF_PERICENTER,MEAN_ANOMALY,EPHEMERIS_TYPE,CLASSIFICATION_TYPE,NORAD_CAT_ID,ELEMENT_SET_NO,REV_AT_EPOCH,BSTAR,MEAN_MOTION_DOT,MEAN_MOTION_DDOT
BEIDOU-2 IGSO-5 (C10),2011-073A,2026-06-18T16:01:15.839616,1.00272695,.01139717,47.6748,271.5267,221.7702,105.6518,0,U,37948,999,5314,0,-.192E-5,0
LUCH 5A (SDCM/PRN 140),2011-074B,2026-06-21T12:07:38.862624,1.00271231,.0002478,8.7658,73.7450,27.2246,157.5700,0,U,37951,999,5309,0,-.55E-6,0
BEIDOU-2 G5 (C05),2012-008A,2026-06-21T00:57:21.636000,1.00273091,.0009015,3.5845,69.6825,273.5349,359.0277,0,U,38091,999,5240,0,.53E-6,0
BEIDOU-2 M3 (C11),2012-018A,2026-06-19T20:57:49.192992,1.86229605,.0020163,55.7552,304.7847,273.6567,86.1052,0,U,38250,999,9599,0,-.87E-6,0
BEIDOU-2 M4 (C12),2012-018B,2026-06-21T10:00:00.201600,1.86229230,.0011367,55.6541,303.9461,274.9349,84.9285,0,U,38251,999,9602,0,-.98E-6,0
SES-5 (EGNOS/PRN 136),2012-036A,2026-06-20T02:35:15.942624,1.00272034,.00018505,0.0456,317.0080,132.7689,222.3295,0,U,38652,999,4448,0,.29E-6,0
BEIDOU-2 M6 (C14),2012-050B,2026-06-20T01:15:33.302592,1.86230944,.0013616,56.5467,62.7995,357.8468,2.1878,0,U,38775,999,9336,0,-.69E-6,0
GSAT-10 (GAGAN/PRN 128),2012-051B,2026-06-20T09:48:13.713120,1.00272193,.0007842,0.0717,261.2491,187.3061,50.1329,0,U,38779,999,5013,0,-.169E-5,0
GPS BIIF-3  (PRN 24),2012-053A,2026-06-20T07:22:56.303904,2.00567513,.0180483,53.5866,143.4715,65.8000,296.0463,0,U,38833,999,9950,0,.59E-6,0
GSAT0103 (GALILEO-FM3),2012-055A,2026-06-17T11:24:53.398656,1.70473345,.00047719,55.8068,101.5377,306.3432,53.5821,0,U,38857,999,8501,0,-.11E-6,0
BEIDOU-2 G6 (C02),2012-059A,2026-06-19T17:02:03.598368,1.00271500,.00096327,4.4288,73.4979,324.3686,209.6174,0,U,38953,999,4993,0,-.183E-5,0
LUCH 5B (SDCM/PRN 125),2012-061A,2026-06-18T21:24:08.583264,1.00272094,.0002465,10.4892,49.8655,150.1855,11.8366,0,U,38977,999,4962,0,-.148E-5,0
COSMOS 2485 (747),2013-019A,2026-06-21T03:12:00.727200,2.13103118,.0023003,65.4217,73.4720,233.7016,126.1208,0,U,39155,999,10236,0,-.48E-6,0
GPS BIIF-4  (PRN 27),2013-023A,2026-06-19T16:13:32.143872,2.00563426,.01415048,54.5020,268.8722,51.0528,310.2374,0,U,39166,999,9593,0,-.52E-6,0
IRNSS-1A,2013-034A,2026-06-18T21:29:26.733984,1.00275723,.00175894,35.7241,63.8469,183.2529,37.3106,0,U,39199,999,4738,0,.51E-6,0
GPS BIIF-5  (PRN 30),2014-008A,2026-06-20T04:13:54.016896,2.00559961,.0084223,53.6552,149.1977,231.3206,127.9004,0,U,39533,999,8974,0,.63E-6,0
ASTRA 5B (EGNOS/PRN 123),2014-011B,2026-06-20T07:48:34.102080,1.00268988,.0002057,0.0635,312.5910,113.5023,343.0777,0,U,39617,999,4469,0,.132E-5,0
COSMOS 2492 (754),2014-012A,2026-06-18T06:38:22.527168,2.13103143,.0010348,65.2971,313.8989,324.5914,35.3281,0,U,39620,999,9526,0,-.55E-6,0
IRNSS-1B,2014-017A,2026-06-19T18:16:25.595040,1.00277178,.00231505,28.9179,240.3593,189.6008,167.3236,0,U,39635,999,4481,0,.109E-5,0
LUCH 5V (SDCM/PRN 141),2014-023A,2026-06-21T04:07:38.534592,1.00273075,.0001946,5.1436,69.7087,48.4046,307.9045,0,U,39727,999,4439,0,-.273E-5,0
GPS BIIF-6  (PRN 06),2014-026A,2026-06-19T22:52:42.473568,2.00560761,.00381554,56.4969,331.4097,326.5311,33.2215,0,U,39741,999,8859,0,-.9E-6,0
COSMOS 2500 (755),2014-032A,2026-06-21T06:17:09.946752,2.13105734,.0007492,65.2298,313.5443,184.9913,174.9944,0,U,40001,999,9354,0,-.67E-6,0
GPS BIIF-7  (PRN 09),2014-045A,2026-06-20T01:04:53.387040,2.00558575,.0033436,55.3550,88.3511,118.2269,242.1176,0,U,40105,999,8613,0,-.25E-6,0
GSAT0201 (GALILEO 5),2014-050A,2026-06-19T13:44:55.894560,1.85520003,.16749227,48.8729,273.3385,179.4838,180.7636,0,U,40128,999,7836,0,-.74E-6,0
GSAT0202 (GALILEO 6),2014-050B,2026-06-20T08:49:01.542144,1.85520612,.1676264,48.8886,272.3914,180.2437,179.7117,0,U,40129,999,8054,0,-.81E-6,0
IRNSS-1C,2014-061A,2026-06-19T18:59:25.063584,1.00268918,.00226825,6.5240,88.8821,2.7462,184.1889,0,U,40269,999,4271,0,-.168E-5,0
GPS BIIF-8  (PRN 03),2014-068A,2026-06-19T21:57:14.608224,2.00576333,.00671132,56.9895,30.8495,70.6969,290.0787,0,U,40294,999,8526,0,-.91E-6,0
COSMOS 2501 (702K),2014-075A,2026-06-21T01:18:52.285248,2.13101228,.0022628,63.6166,190.2381,212.5574,147.3441,0,U,40315,999,8993,0,.72E-6,0
GPS BIIF-9  (PRN 26),2015-013A,2026-06-20T01:17:51.090720,2.00551222,.01096019,53.1677,204.0589,40.1558,320.7059,0,U,40534,999,8188,0,.35E-6,0
GSAT0203 (GALILEO 7),2015-017A,2026-06-17T19:11:07.295136,1.70476090,.0002098,56.7854,341.5787,276.4201,83.5494,0,U,40544,999,6921,0,-.91E-6,0
GSAT0204 (GALILEO 8),2015-017B,2026-06-19T19:33:30.638016,1.70475706,.000197,56.7939,341.5423,245.5009,114.4726,0,U,40545,999,3229,0,-.95E-6,0
